STARLINK-33576          
1 62775U 25015T   26037.16765077  .00029064  00000+0  98941-3 0  9991
2 62775  53.1577 108.9691 0001241  98.7858 261.3283 15.30205079 59599
STARLINK-33570          
1 62776U 25015U   26035.50840114  .00029297  00000+0  99745-3 0  9995
2 62776  53.1575 116.3852 0001015  80.9030 279.2086 15.30198292 59344
STARLINK-33591          
1 62777U 25015V   26037.16448349  .00043294  00000+0  14650-2 0  9998
2 62777  53.1579 108.9489 0001530  98.4296 261.6878 15.30207435 59650
STARLINK-33573          
1 62778U 25015W   26036.61242501  .00048652  00000+0  16443-2 0  9995
2 62778  53.1577 111.1875 0001133  64.6624 295.4494 15.30194082 59576
STARLINK-33568          
1 62779U 25015X   26037.22346971  .00037276  00000+0  12635-2 0  9999
2 62779  53.1565 108.6056 0002625 101.3709 258.7586 15.30220039 59505
STARLINK-33593          
1 62780U 25015Y   26037.20447199  .00044442  00000+0  15021-2 0  9998
2 62780  53.1584 108.4837 0001553 343.6627  16.4324 15.30232744 59664
STARLINK-33588          
1 62781U 25015Z   26037.22503581  .00023280  00000+0  79521-3 0  9992
2 62781  53.1585 106.4212 0000571  97.0768 263.0298 15.30218748 59697
STARLINK-33585          
1 62782U 25015AA  26037.19075406  .00028513  00000+0  97130-3 0  9999
2 62782  53.1601 108.4017 0001338  97.8996 262.2157 15.30194110 59382
STARLINK-33582          
1 62783U 25015AB  26037.21396811  .00040197  00000+0  13612-2 0  9993
2 62783  53.1566 108.5443 0000855  81.2802 278.8295 15.30218142 59594
STARLINK-33581          
1 62784U 25015AC  26037.17923971  .00043858  00000+0  14805-2 0  9994
2 62784  53.1619 109.0335 0001308  85.5034 274.6116 15.30280911 59654
STARLINK-32883          
1 62806U 25018A   26037.16915274  .00053948  00000+0  18177-2 0  9995
2 62806  53.1570  95.9267 0001290 315.7018  44.3879 15.30247609 59264
STARLINK-32886          
1 62807U 25018B   26037.16810963  .00060726  00000+0  20395-2 0  9992
2 62807  53.1576  95.9182 0001250 105.9902 254.1237 15.30298643 58356
STARLINK-32848          
1 62808U 25018C   26036.58555492  .00067692  00000+0  22709-2 0  9991
2 62808  53.1558  98.6809 0001981  71.8875 288.2342 15.30284932 58254
STARLINK-32787          
1 62809U 25018D   26036.57816060  .00049911  00000+0  16830-2 0  9994
2 62809  53.1585  98.6362 0001168  68.0740 292.0384 15.30257388 58259
STARLINK-32851          
1 62810U 25018E   26036.58343949  .00047966  00000+0  16186-2 0  9990
2 62810  53.1571  98.6695 0001537  75.7112 284.4059 15.30251828 58250
STARLINK-32847          
1 62811U 25018F   26037.15333521  .00043608  00000+0  14747-2 0  9990
2 62811  53.1588  95.8251 0002704  86.4350 273.6960 15.30223443 58349
