[{"OBJECT_NAME":"STARLINK-33576","OBJECT_ID":"2025-015T","EPOCH":"2026-02-06T04:01:25.026528","MEAN_MOTION":15.30205079,"ECCENTRICITY":0.00012413,"INCLINATION":53.1577,"RA_OF_ASC_NODE":108.9691,"ARG_OF_PERICENTER":98.7858,"MEAN_ANOMALY":261.3283,"EPHEMERIS_TYPE":0,"CLASSIFICATION_TYPE":"U","NORAD_CAT_ID":62775,"ELEMENT_SET_NO":999,"REV_AT_EPOCH":5959,"BSTAR":0.00098941285,"MEAN_MOTION_DOT":0.00029064,"MEAN_MOTION_DDOT":0},{"OBJECT_NAME":"STARLINK-33570","OBJECT_ID":"2025-015U","EPOCH":"2026-02-04T12:12:05.858496","MEAN_MOTION":15.30198292,"ECCENTRICITY":0.00010157,"INCLINATION":53.1575,"RA_OF_ASC_NODE":116.3852,"ARG_OF_PERICENTER":80.903,"MEAN_ANOMALY":279.2086,"EPHEMERIS_TYPE":0,"CLASSIFICATION_TYPE":"U","NORAD_CAT_ID":62776,"ELEMENT_SET_NO":999,"REV_AT_EPOCH":5934,"BSTAR":0.00099745258,"MEAN_MOTION_DOT":0.00029297,"MEAN_MOTION_DDOT":0},{"OBJECT_NAME":"STARLINK-33591","OBJECT_ID":"2025-015V","EPOCH":"2026-02-06T03:56:51.373536","MEAN_MOTION":15.30207435,"ECCENTRICITY":0.00015307,"INCLINATION":53.1579,"RA_OF_ASC_NODE":108.9489,"ARG_OF_PERICENTER":98.4296,"MEAN_ANOMALY":261.6878,"EPHEMERIS_TYPE":0,"CLASSIFICATION_TYPE":"U","NORAD_CAT_ID":62777,"ELEMENT_SET_NO":999,"REV_AT_EPOCH":5965,"BSTAR":0.0014650412,"MEAN_MOTION_DOT":0.00043294,"MEAN_MOTION_DDOT":0},{"OBJECT_NAME":"STARLINK-33573","OBJECT_ID":"2025-015W","EPOCH":"2026-02-05T14:41:53.520864","MEAN_MOTION":15.30194082,"ECCENTRICITY":0.0001133,"INCLINATION":53.1577,"RA_OF_ASC_NODE":111.1875,"ARG_OF_PERICENTER":64.6624,"MEAN_ANOMALY":295.4494,"EPHEMERIS_TYPE":0,"CLASSIFICATION_TYPE":"U","NORAD_CAT_ID":62778,"ELEMENT_SET_NO":999,"REV_AT_EPOCH":5957,"BSTAR":0.0016443,"MEAN_MOTION_DOT":0.00048652,"MEAN_MOTION_DDOT":0},{"OBJECT_NAME":"STARLINK-33568","OBJECT_ID":"2025-015X","EPOCH":"2026-02-06T05:21:47.782944","MEAN_MOTION":15.30220039,"ECCENTRICITY":0.00026251,"INCLINATION":53.1565,"RA_OF_ASC_NODE":108.6056,"ARG_OF_PERICENTER":101.3709,"MEAN_ANOMALY":258.7586,"EPHEMERIS_TYPE":0,"CLASSIFICATION_TYPE":"U","NORAD_CAT_ID":62779,"ELEMENT_SET_NO":999,"REV_AT_EPOCH":5950,"BSTAR":0.0012635357,"MEAN_MOTION_DOT":0.00037276,"MEAN_MOTION_DDOT":0},{"OBJECT_NAME":"STARLINK-33593","OBJECT_ID":"2025-015Y","EPOCH":"2026-02-06T04:54:26.379936","MEAN_MOTION":15.30232744,"ECCENTRICITY":0.00015537,"INCLINATION":53.1584,"RA_OF_ASC_NODE":108.4837,"ARG_OF_PERICENTER":343.6627,"MEAN_ANOMALY":16.4324,"EPHEMERIS_TYPE":0,"CLASSIFICATION_TYPE":"U","NORAD_CAT_ID":62780,"ELEMENT_SET_NO":999,"REV_AT_EPOCH":5966,"BSTAR":0.0015021354,"MEAN_MOTION_DOT":0.00044442,"MEAN_MOTION_DDOT":0},{"OBJECT_NAME":"STARLINK-33588","OBJECT_ID":"2025-015Z","EPOCH":"2026-02-06T05:24:03.093984","MEAN_MOTION":15.30218748,"ECCENTRICITY":5.713e-5,"INCLINATION":53.1585,"RA_OF_ASC_NODE":106.4212,"ARG_OF_PERICENTER":97.0768,"MEAN_ANOMALY":263.0298,"EPHEMERIS_TYPE":0,"CLASSIFICATION_TYPE":"U","NORAD_CAT_ID":62781,"ELEMENT_SET_NO":999,"REV_AT_EPOCH":5969,"BSTAR":0.00079520544,"MEAN_MOTION_DOT":0.0002328,"MEAN_MOTION_DDOT":0},{"OBJECT_NAME":"STARLINK-33585","OBJECT_ID":"2025-015AA","EPOCH":"2026-02-06T04:34:41.150784","MEAN_MOTION":15.3019411,"ECCENTRICITY":0.00013389,"INCLINATION":53.1601,"RA_OF_ASC_NODE":108.4017,"ARG_OF_PERICENTER":97.8996,"MEAN_ANOMALY":262.2157,"EPHEMERIS_TYPE":0,"CLASSIFICATION_TYPE":"U","NORAD_CAT_ID":62782,"ELEMENT_SET_NO":999,"REV_AT_EPOCH":5938,"BSTAR":0.00097129726,"MEAN_MOTION_DOT":0.00028513,"MEAN_MOTION_DDOT":0},{"OBJECT_NAME":"STARLINK-33582","OBJECT_ID":"2025-015AB","EPOCH":"2026-02-06T05:08:06.844704","MEAN_MOTION":15.30218142,"ECCENTRICITY":8.552e-5,"INCLINATION":53.1566,"RA_OF_ASC_NODE":108.5443,"ARG_OF_PERICENTER":81.2802,"MEAN_ANOMALY":278.8295,"EPHEMERIS_TYPE":0,"CLASSIFICATION_TYPE":"U","NORAD_CAT_ID":62783,"ELEMENT_SET_NO":999,"REV_AT_EPOCH":5959,"BSTAR":0.0013612039,"MEAN_MOTION_DOT":0.00040197,"MEAN_MOTION_DDOT":0},{"OBJECT_NAME":"STARLINK-33581","OBJECT_ID":"2025-015AC","EPOCH":"2026-02-06T04:18:06.310944","MEAN_MOTION":15.30280911,"ECCENTRICITY":0.00013085,"INCLINATION":53.1619,"RA_OF_ASC_NODE":109.0335,"ARG_OF_PERICENTER":85.5034,"MEAN_ANOMALY":274.6116,"EPHEMERIS_TYPE":0,"CLASSIFICATION_TYPE":"U","NORAD_CAT_ID":62784,"ELEMENT_SET_NO":999,"REV_AT_EPOCH":5965,"BSTAR":0.0014804962,"MEAN_MOTION_DOT":0.00043858,"MEAN_MOTION_DDOT":0},{"OBJECT_NAME":"STARLINK-32883","OBJECT_ID":"2025-018A","EPOCH":"2026-02-06T04:03:34.796736","MEAN_MOTION":15.30247609,"ECCENTRICITY":0.00012908,"INCLINATION":53.157,"RA_OF_ASC_NODE":95.9267,"ARG_OF_PERICENTER":315.7018,"MEAN_ANOMALY":44.3879,"EPHEMERIS_TYPE":0,"CLASSIFICATION_TYPE":"U","NORAD_CAT_ID":62806,"ELEMENT_SET_NO":999,"REV_AT_EPOCH":5926,"BSTAR":0.0018177159,"MEAN_MOTION_DOT":0.00053948,"MEAN_MOTION_DDOT":0},{"OBJECT_NAME":"STARLINK-32886","OBJECT_ID":"2025-018B","EPOCH":"2026-02-06T04:02:04.672032","MEAN_MOTION":15.30298643,"ECCENTRICITY":0.00012504,"INCLINATION":53.1576,"RA_OF_ASC_NODE":95.9182,"ARG_OF_PERICENTER":105.9902,"MEAN_ANOMALY":254.1237,"EPHEMERIS_TYPE":0,"CLASSIFICATION_TYPE":"U","NORAD_CAT_ID":62807,"ELEMENT_SET_NO":999,"REV_AT_EPOCH":5835,"BSTAR":0.0020395107,"MEAN_MOTION_DOT":0.00060726,"MEAN_MOTION_DDOT":0},{"OBJECT_NAME":"STARLINK-32848","OBJECT_ID":"2025-018C","EPOCH":"2026-02-05T14:03:11.945088","MEAN_MOTION":15.30284932,"ECCENTRICITY":0.0001981,"INCLINATION":53.1558,"RA_OF_ASC_NODE":98.6809,"ARG_OF_PERICENTER":71.8875,"MEAN_ANOMALY":288.2342,"EPHEMERIS_TYPE":0,"CLASSIFICATION_TYPE":"U","NORAD_CAT_ID":62808,"ELEMENT_SET_NO":999,"REV_AT_EPOCH":5825,"BSTAR":0.0022709,"MEAN_MOTION_DOT":0.00067692,"MEAN_MOTION_DDOT":0},{"OBJECT_NAME":"STARLINK-32787","OBJECT_ID":"2025-018D","EPOCH":"2026-02-05T13:52:33.075840","MEAN_MOTION":15.30257388,"ECCENTRICITY":0.0001168,"INCLINATION":53.1585,"RA_OF_ASC_NODE":98.6362,"ARG_OF_PERICENTER":68.074,"MEAN_ANOMALY":292.0384,"EPHEMERIS_TYPE":0,"CLASSIFICATION_TYPE":"U","NORAD_CAT_ID":62809,"ELEMENT_SET_NO":999,"REV_AT_EPOCH":5825,"BSTAR":0.001683,"MEAN_MOTION_DOT":0.00049911,"MEAN_MOTION_DDOT":0},{"OBJECT_NAME":"STARLINK-32851","OBJECT_ID":"2025-018E","EPOCH":"2026-02-05T14:00:09.171936","MEAN_MOTION":15.30251828,"ECCENTRICITY":0.0001537,"INCLINATION":53.1571,"RA_OF_ASC_NODE":98.6695,"ARG_OF_PERICENTER":75.7112,"MEAN_ANOMALY":284.4059,"EPHEMERIS_TYPE":0,"CLASSIFICATION_TYPE":"U","NORAD_CAT_ID":62810,"ELEMENT_SET_NO":999,"REV_AT_EPOCH":5825,"BSTAR":0.0016186,"MEAN_MOTION_DOT":0.00047966,"MEAN_MOTION_DDOT":0},{"OBJECT_NAME":"STARLINK-32847","OBJECT_ID":"2025-018F","EPOCH":"2026-02-06T03:40:48.162144","MEAN_MOTION":15.30223443,"ECCENTRICITY":0.00027044,"INCLINATION":53.1588,"RA_OF_ASC_NODE":95.8251,"ARG_OF_PERICENTER":86.435,"MEAN_ANOMALY":273.696,"EPHEMERIS_TYPE":0,"CLASSIFICATION_TYPE":"U","NORAD_CAT_ID":62811,"ELEMENT_SET_NO":999,"REV_AT_EPOCH":5834,"BSTAR":0.0014747104,"MEAN_MOTION_DOT":0.00043608,"MEAN_MOTION_DDOT":0}]
